GLOBALSTAR M057         
1 25943U 99058A   25140.04147715 -.00000065  00000+0  25688-3 0  9998
2 25943  51.9993  68.0792 0002750 330.6099  29.4596 12.24819606163551
GLOBALSTAR M059         
1 25944U 99058B   25139.87813609 -.00000131  00000+0 -55267-3 0  9991
2 25944  52.0023 283.7581 0000668 172.9819 354.8443 11.99978658159390
GLOBALSTAR M056         
1 25945U 99058C   25139.82023557  .00000003  00000+0  10534-2 0  9995
2 25945  51.9971 286.6020 0001846 122.6108  25.8181 12.04779054159258
GLOBALSTAR M031         
1 25946U 99058D   25139.57690622 -.00000160  00000+0 -70327-3 0  9994
2 25946  51.9935 181.3119 0001432 130.5160   3.6951 12.16035928161065
GLOBALSTAR M039         
1 25961U 99062A   25139.89762248 -.00000066  00000+0  20959-3 0  9995
2 25961  51.9867 354.8817 0001891 293.8251  66.2417 12.62326049176674
GLOBALSTAR M034         
1 25962U 99062B   25139.58409361 -.00000061  00000+0  31862-3 0  9996
2 25962  51.9866  85.7358 0014500 347.6623 183.1509 11.79448199135018
GLOBALSTAR M029         
1 25963U 99062C   25140.18736119 -.00000078  00000+0  10226-3 0  9998
2 25963  51.9773 170.9828 0002315  64.7740 327.9205 11.99896990165813
GLOBALSTAR M061         
1 25964U 99062D   25139.86476937 -.00000052  00000+0  45589-3 0  9993
2 25964  51.9797 268.6688 0005514 266.1100 270.3445 11.76775477118132
